ISS OBJECT XT           
1 66907U 98067XT  26083.46050153  .00185654  00000+0  12240-2 0  9990
2 66907  51.6252 350.0134 0005402 175.0560 185.0493 15.74515234 17502
ISS OBJECT XU           
1 66908U 98067XU  26083.45733407  .00188153  00000+0  12296-2 0  9998
2 66908  51.6249 349.9877 0005644 175.3702 184.7351 15.74708720 17502
SILVERSAT               
1 66909U 98067XV  26082.98164823  .00288378  00000+0  15389-2 0  9992
2 66909  51.6221 351.3039 0006229 177.1516 182.9521 15.78994089 17444
ISS OBJECT XW           
1 66910U 98067XW  26083.46394234  .00165160  00000+0  11502-2 0  9995
2 66910  51.6240 350.0286 0005904 174.9033 185.2027 15.73305424 17503
ISS OBJECT XX           
1 66911U 98067XX  26083.44596692  .00391459  00000+0  15820-2 0  9995
2 66911  51.6199 347.6223 0007866 183.5979 176.4969 15.84695682 17523
ISS OBJECT XY           
1 66912U 98067XY  26083.45850020  .00094960  00000+0  88169-3 0  9999
2 66912  51.6275 352.2703 0004026 174.2260 185.8783 15.66654645 17464
KNACKSAT-2              
1 67683U 98067XZ  26083.01837906  .00038683  00000+0  61191-3 0  9991
2 67683  51.6326   0.5913 0009822 237.4563 122.5479 15.53013062  7018
CORAL                   
1 67684U 98067YA  26083.47622175  .00078164  00000+0  10629-2 0  9999
2 67684  51.6305 357.6492 0012273 228.4697 131.5242 15.56803499  7096
GXIBA-1                 
1 67685U 98067YB  26082.94566353  .00047226  00000+0  73089-3 0  9991
2 67685  51.6338   0.8611 0011822 234.4096 125.5793 15.53503062  7007
UITMSAT-2               
1 67686U 98067YC  26083.06244469  .00055892  00000+0  83755-3 0  9996
2 67686  51.6326   0.1380 0008812 205.0636 154.9928 15.54352229  7026
HMU-SAT2                
1 67687U 98067YD  26083.01414055  .00041357  00000+0  64805-3 0  9998
2 67687  51.6328   0.5652 0008396 207.9190 152.1351 15.53258522  6937
LEOPARD                 
1 67688U 98067YE  26083.06786206  .00050002  00000+0  76118-3 0  9991
2 67688  51.6323   0.1737 0008646 205.7190 154.3372 15.53969684  6943
CREW DRAGON 12          
1 67796U 26031A   26083.48628161  .00013391  00000+0  25488-3 0  9998
2 67796  51.6345 359.2131 0006234 227.6352 132.4108 15.48523431558550
PROGRESS-MS 33          
1 68319U 26058A   26082.05109224  .00200487  28256-4  35870-3 0  9993
2 68319  51.6358   6.8873 0011621 152.2903 207.8729 16.01170532    69
