[{"OBJECT_NAME":"ISS OBJECT XT","OBJECT_ID":"1998-067XT","EPOCH":"2026-03-24T11:03:07.332192","MEAN_MOTION":15.74515234,"ECCENTRICITY":0.0005402,"INCLINATION":51.6252,"RA_OF_ASC_NODE":350.0134,"ARG_OF_PERICENTER":175.056,"MEAN_ANOMALY":185.0493,"EPHEMERIS_TYPE":0,"CLASSIFICATION_TYPE":"U","NORAD_CAT_ID":66907,"ELEMENT_SET_NO":999,"REV_AT_EPOCH":1750,"BSTAR":0.001224,"MEAN_MOTION_DOT":0.00185654,"MEAN_MOTION_DDOT":0},{"OBJECT_NAME":"ISS OBJECT XU","OBJECT_ID":"1998-067XU","EPOCH":"2026-03-24T10:58:33.663648","MEAN_MOTION":15.7470872,"ECCENTRICITY":0.0005644,"INCLINATION":51.6249,"RA_OF_ASC_NODE":349.9877,"ARG_OF_PERICENTER":175.3702,"MEAN_ANOMALY":184.7351,"EPHEMERIS_TYPE":0,"CLASSIFICATION_TYPE":"U","NORAD_CAT_ID":66908,"ELEMENT_SET_NO":999,"REV_AT_EPOCH":1750,"BSTAR":0.0012296,"MEAN_MOTION_DOT":0.00188153,"MEAN_MOTION_DDOT":0},{"OBJECT_NAME":"SILVERSAT","OBJECT_ID":"1998-067XV","EPOCH":"2026-03-23T23:33:34.407072","MEAN_MOTION":15.78994089,"ECCENTRICITY":0.00062297,"INCLINATION":51.6221,"RA_OF_ASC_NODE":351.3039,"ARG_OF_PERICENTER":177.1516,"MEAN_ANOMALY":182.9521,"EPHEMERIS_TYPE":0,"CLASSIFICATION_TYPE":"U","NORAD_CAT_ID":66909,"ELEMENT_SET_NO":999,"REV_AT_EPOCH":1744,"BSTAR":0.0015388739,"MEAN_MOTION_DOT":0.00288378,"MEAN_MOTION_DDOT":0},{"OBJECT_NAME":"ISS OBJECT XW","OBJECT_ID":"1998-067XW","EPOCH":"2026-03-24T11:08:04.618176","MEAN_MOTION":15.73305424,"ECCENTRICITY":0.0005904,"INCLINATION":51.624,"RA_OF_ASC_NODE":350.0286,"ARG_OF_PERICENTER":174.9033,"MEAN_ANOMALY":185.2027,"EPHEMERIS_TYPE":0,"CLASSIFICATION_TYPE":"U","NORAD_CAT_ID":66910,"ELEMENT_SET_NO":999,"REV_AT_EPOCH":1750,"BSTAR":0.0011502,"MEAN_MOTION_DOT":0.0016516,"MEAN_MOTION_DDOT":0},{"OBJECT_NAME":"ISS OBJECT XX","OBJECT_ID":"1998-067XX","EPOCH":"2026-03-24T10:42:11.541888","MEAN_MOTION":15.84695682,"ECCENTRICITY":0.0007866,"INCLINATION":51.6199,"RA_OF_ASC_NODE":347.6223,"ARG_OF_PERICENTER":183.5979,"MEAN_ANOMALY":176.4969,"EPHEMERIS_TYPE":0,"CLASSIFICATION_TYPE":"U","NORAD_CAT_ID":66911,"ELEMENT_SET_NO":999,"REV_AT_EPOCH":1752,"BSTAR":0.001582,"MEAN_MOTION_DOT":0.00391459,"MEAN_MOTION_DDOT":0},{"OBJECT_NAME":"ISS OBJECT XY","OBJECT_ID":"1998-067XY","EPOCH":"2026-03-24T11:00:14.417280","MEAN_MOTION":15.66654645,"ECCENTRICITY":0.0004026,"INCLINATION":51.6275,"RA_OF_ASC_NODE":352.2703,"ARG_OF_PERICENTER":174.226,"MEAN_ANOMALY":185.8783,"EPHEMERIS_TYPE":0,"CLASSIFICATION_TYPE":"U","NORAD_CAT_ID":66912,"ELEMENT_SET_NO":999,"REV_AT_EPOCH":1746,"BSTAR":0.00088169,"MEAN_MOTION_DOT":0.0009496,"MEAN_MOTION_DDOT":0},{"OBJECT_NAME":"KNACKSAT-2","OBJECT_ID":"1998-067XZ","EPOCH":"2026-03-24T00:26:27.950784","MEAN_MOTION":15.53013062,"ECCENTRICITY":0.00098227,"INCLINATION":51.6326,"RA_OF_ASC_NODE":0.5913,"ARG_OF_PERICENTER":237.4563,"MEAN_ANOMALY":122.5479,"EPHEMERIS_TYPE":0,"CLASSIFICATION_TYPE":"U","NORAD_CAT_ID":67683,"ELEMENT_SET_NO":999,"REV_AT_EPOCH":701,"BSTAR":0.00061191478,"MEAN_MOTION_DOT":0.00038683,"MEAN_MOTION_DDOT":0},{"OBJECT_NAME":"CORAL","OBJECT_ID":"1998-067YA","EPOCH":"2026-03-24T11:25:45.559200","MEAN_MOTION":15.56803499,"ECCENTRICITY":0.0012273,"INCLINATION":51.6305,"RA_OF_ASC_NODE":357.6492,"ARG_OF_PERICENTER":228.4697,"MEAN_ANOMALY":131.5242,"EPHEMERIS_TYPE":0,"CLASSIFICATION_TYPE":"U","NORAD_CAT_ID":67684,"ELEMENT_SET_NO":999,"REV_AT_EPOCH":709,"BSTAR":0.0010629,"MEAN_MOTION_DOT":0.00078164,"MEAN_MOTION_DDOT":0},{"OBJECT_NAME":"GXIBA-1","OBJECT_ID":"1998-067YB","EPOCH":"2026-03-23T22:41:45.328992","MEAN_MOTION":15.53503062,"ECCENTRICITY":0.0011822,"INCLINATION":51.6338,"RA_OF_ASC_NODE":0.8611,"ARG_OF_PERICENTER":234.4096,"MEAN_ANOMALY":125.5793,"EPHEMERIS_TYPE":0,"CLASSIFICATION_TYPE":"U","NORAD_CAT_ID":67685,"ELEMENT_SET_NO":999,"REV_AT_EPOCH":700,"BSTAR":0.00073089,"MEAN_MOTION_DOT":0.00047226,"MEAN_MOTION_DDOT":0},{"OBJECT_NAME":"UITMSAT-2","OBJECT_ID":"1998-067YC","EPOCH":"2026-03-24T01:29:55.221216","MEAN_MOTION":15.54352229,"ECCENTRICITY":0.00088124,"INCLINATION":51.6326,"RA_OF_ASC_NODE":0.138,"ARG_OF_PERICENTER":205.0636,"MEAN_ANOMALY":154.9928,"EPHEMERIS_TYPE":0,"CLASSIFICATION_TYPE":"U","NORAD_CAT_ID":67686,"ELEMENT_SET_NO":999,"REV_AT_EPOCH":702,"BSTAR":0.00083754632,"MEAN_MOTION_DOT":0.00055892,"MEAN_MOTION_DDOT":0},{"OBJECT_NAME":"HMU-SAT2","OBJECT_ID":"1998-067YD","EPOCH":"2026-03-24T00:20:21.743520","MEAN_MOTION":15.53258522,"ECCENTRICITY":0.00083965,"INCLINATION":51.6328,"RA_OF_ASC_NODE":0.5652,"ARG_OF_PERICENTER":207.919,"MEAN_ANOMALY":152.1351,"EPHEMERIS_TYPE":0,"CLASSIFICATION_TYPE":"U","NORAD_CAT_ID":67687,"ELEMENT_SET_NO":999,"REV_AT_EPOCH":693,"BSTAR":0.00064805222,"MEAN_MOTION_DOT":0.00041357,"MEAN_MOTION_DDOT":0},{"OBJECT_NAME":"LEOPARD","OBJECT_ID":"1998-067YE","EPOCH":"2026-03-24T01:37:43.281984","MEAN_MOTION":15.53969684,"ECCENTRICITY":0.00086465,"INCLINATION":51.6323,"RA_OF_ASC_NODE":0.1737,"ARG_OF_PERICENTER":205.719,"MEAN_ANOMALY":154.3372,"EPHEMERIS_TYPE":0,"CLASSIFICATION_TYPE":"U","NORAD_CAT_ID":67688,"ELEMENT_SET_NO":999,"REV_AT_EPOCH":694,"BSTAR":0.00076117619,"MEAN_MOTION_DOT":0.00050002,"MEAN_MOTION_DDOT":0},{"OBJECT_NAME":"CREW DRAGON 12","OBJECT_ID":"2026-031A","EPOCH":"2026-03-24T11:40:14.731104","MEAN_MOTION":15.48523431,"ECCENTRICITY":0.0006234,"INCLINATION":51.6345,"RA_OF_ASC_NODE":359.2131,"ARG_OF_PERICENTER":227.6352,"MEAN_ANOMALY":132.4108,"EPHEMERIS_TYPE":0,"CLASSIFICATION_TYPE":"U","NORAD_CAT_ID":67796,"ELEMENT_SET_NO":999,"REV_AT_EPOCH":55855,"BSTAR":0.00025488,"MEAN_MOTION_DOT":0.00013391,"MEAN_MOTION_DDOT":0},{"OBJECT_NAME":"PROGRESS-MS 33","OBJECT_ID":"2026-058A","EPOCH":"2026-03-23T01:13:34.369536","MEAN_MOTION":16.01170532,"ECCENTRICITY":0.00116217,"INCLINATION":51.6358,"RA_OF_ASC_NODE":6.8873,"ARG_OF_PERICENTER":152.2903,"MEAN_ANOMALY":207.8729,"EPHEMERIS_TYPE":0,"CLASSIFICATION_TYPE":"U","NORAD_CAT_ID":68319,"ELEMENT_SET_NO":999,"REV_AT_EPOCH":6,"BSTAR":0.00035870065,"MEAN_MOTION_DOT":0.00200487,"MEAN_MOTION_DDOT":2.8255529e-5}]
